COSMOS 2497             
1 39762U 14028B   25073.59595947  .00000014  00000+0  33893-4 0  9996
2 39762  82.4516  38.0854 0020557 359.9249   0.1824 12.42857130490420
COSMOS 2498             
1 39763U 14028C   25073.52960621  .00000015  00000+0  34616-4 0  9990
2 39763  82.4479  36.8168 0021265 359.4589   0.6464 12.42958751490440
COSMOS 2499 (RS-47)     
1 39765U 14028E   25073.85008243  .00000010  00000+0 -14436-5 0  9996
2 39765  82.4519 202.3687 0231347   0.3161 359.8046 12.82887536506343
HODOYOSHI-4             
1 40011U 14033B   25073.79190430  .00003568  00000+0  40895-3 0  9997
2 40011  97.5589 276.1179 0025048  29.8753 330.3887 14.86293646580539
UNISAT-6                
1 40012U 14033C   25073.41439926  .00009257  00000+0  10878-2 0  9991
2 40012  97.7296 232.1393 0049481 140.7326 219.7495 14.84212274577866
DEIMOS-2                
1 40013U 14033D   25073.80085595  .00004949  00000+0  49990-3 0  9995
2 40013  97.6469 318.2737 0002228  74.1368 286.0096 14.91478329582065
BUGSAT-1 (TITA)         
1 40014U 14033E   25073.61980300  .00010859  00000+0  67468-3 0  9990
2 40014  98.0851 135.4551 0030537 304.3326  55.5012 15.09470935586364
SAUDISAT 4              
1 40016U 14033G   25073.49006665  .00002655  00000+0  36424-3 0  9994
2 40016  97.6937 232.6530 0046861 128.6948 231.8468 14.78461294578129
APRIZESAT 9             
1 40018U 14033J   25073.83259313  .00002536  00000+0  38754-3 0  9990
2 40018  97.8377 215.3966 0066392 236.6179 122.8665 14.73175927576035
BRITE-CA1 (TORONTO)     
1 40020U 14033L   25073.87145703  .00002869  00000+0  45122-3 0  9990
2 40020  97.9098 208.4282 0079609 307.5153  51.8836 14.71207003574755
DUCHIFAT-1              
1 40021U 14033M   25073.59028855  .00037596  00000+0  15920-2 0  9995
2 40021  98.1011  80.6733 0006883 251.1537 108.8951 15.23050573585051
NANOSATC-BR1            
1 40024U 14033Q   25073.53391953  .00026285  00000+0  14126-2 0  9994
2 40024  98.0895  65.6204 0004523   7.1968 352.9326 15.14866728584015
QB50P1                  
1 40025U 14033R   25073.37783299  .00019095  00000+0  12356-2 0  9999
2 40025  98.0769  51.2844 0010992   5.2111 354.9228 15.08176529583482
DTUSAT-2                
1 40030U 14033W   25073.33499848  .00018040  00000+0  12333-2 0  9999
2 40030  98.0459  41.0962 0009844   8.7491 351.3905 15.06163065583252
FLOCK 1C-4              
1 40031U 14033X   25073.47498586  .00071939  00000+0  24737-2 0  9990
2 40031  98.0914  73.8439 0001790 288.0875  72.0168 15.29804257584194
QB50P2                  
1 40032U 14033Y   25073.35975807  .00017241  00000+0  11762-2 0  9994
2 40032  98.0365  40.8970 0006591 307.6061  52.4566 15.06272382583239
PERSEUS-M1              
1 40039U 14033AF  25073.79228408  .00005181  00000+0  50236-3 0  9997
2 40039  97.9246   7.5965 0013086  27.3654 332.8252 14.93063339582531
POLYITAN-1              
1 40042U 14033AJ  25073.43503229  .00030614  00000+0  16451-2 0  9998
2 40042  98.0999  57.7501 0008094 309.6762  50.3753 15.14815966583572
TIGRISAT                
1 40043U 14033AK  25073.88175622  .00006727  00000+0  82900-3 0  9991
2 40043  97.7222 232.0411 0053024 139.3186 221.2007 14.82220183577813
AISAT                   
1 40054U 14034B   25073.65716427  .00018272  00000+0  15655-2 0  9993
2 40054  98.3011 310.4869 0007643 323.1677  36.9017 14.97585805578173
CANX-4                  
1 40055U 14034C   25073.54275140  .00003056  00000+0  41232-3 0  9999
2 40055  98.3734 285.6399 0013990  49.9127 310.3307 14.79852867576514
CANX-5                  
1 40056U 14034D   25073.54593532  .00003058  00000+0  41242-3 0  9991
2 40056  98.3737 285.6607 0013986  50.0577 310.1860 14.79865614567322
VELOX-I                 
1 40057U 14034E   25073.89710724  .00010981  00000+0  10947-2 0  9994
2 40057  98.3066 308.7710 0008269 350.5017   9.6042 14.91737999577988
GONETS-M 10             
1 40063U 14036C   25073.53134185  .00000023  00000+0  95374-4 0  9990
2 40063  82.5077 233.1382 0022254  66.4771 293.8643 12.42928725485141
METEOR-M 2              
1 40069U 14037A   25073.88848507  .00000395  00000+0  20076-3 0  9993
2 40069  98.4626  62.3885 0004662 297.9553  62.1153 14.21240358554075
DX1                     
1 40071U 14037C   25073.80878806  .00005683  00000+0  63232-3 0  9999
2 40071  98.3400   5.1418 0006894 338.1834  21.9087 14.87542874577831
UKUBE-1                 
1 40074U 14037F   25073.83797926  .00019406  00000+0  14466-2 0  9990
2 40074  98.3840  28.7590 0000857  70.3024 289.8291 15.02937492579301
GAOFEN-2                
1 40118U 14049A   25073.88667012  .00003076  00000+0  40791-3 0  9996
2 40118  98.0711 132.0485 0004212 247.7327 112.3438 14.80592187571286
BRITE-PL2 (HEWELIUSZ)   
1 40119U 14049B   25073.85528724  .00005759  00000+0  57448-3 0  9997
2 40119  97.8833 178.9835 0014861 187.0116 173.0897 14.91861408572988
CBERS 4                 
1 40336U 14079A   25073.84320102  .00000421  00000+0  16121-3 0  9994
2 40336  98.3633 140.6206 0000816 129.9126 230.2132 14.35494079538076
SMAP                    
1 40376U 15003A   25073.59243534  .00001497  00000+0  29902-3 0  9996
2 40376  98.1308  82.1592 0001598  95.8866 264.2519 14.63327954540409
GONETS-M 11             
1 40552U 15020A   25073.60828259  .00000062  00000+0  37956-3 0  9991
2 40552  82.4874 317.3352 0015597 288.1301  71.8079 12.42889690451646
GONETS-M 12             
1 40553U 15020B   25073.58020769  .00000054  00000+0  31881-3 0  9991
2 40553  82.4911 318.3442 0014089 272.4181  87.5285 12.42898854451631
GONETS-M 13             
1 40554U 15020C   25073.63514847  .00000057  00000+0  33793-3 0  9990
2 40554  82.4869 317.0741 0012500 256.4333 103.5354 12.42889359451613
DMC3-FM1                
1 40715U 15032A   25073.90224124  .00001813  00000+0  21938-3 0  9997
2 40715  97.7129 310.4814 0006874 117.4543 242.7372 14.84839080521735
DMC3-FM2                
1 40716U 15032B   25073.85688898  .00001809  00000+0  21882-3 0  9997
2 40716  97.7184 311.6920 0008598 123.9285 236.2749 14.84869429521723
DMC3-FM3                
1 40717U 15032C   25073.89894558  .00001818  00000+0  22049-3 0  9990
2 40717  97.7237 313.1397 0010094 121.7143 238.5057 14.84741774521731
CARBONITE 1 (CBNT-1)    
1 40718U 15032D   25073.80437888  .00005283  00000+0  68412-3 0  9995
2 40718  97.6458 267.1258 0015002   5.3093 354.8277 14.81164897521283
DEORBITSAIL             
1 40719U 15032E   25073.57822975  .00015628  00000+0  14395-2 0  9999
2 40719  97.6547 295.2032 0011061 326.0070  34.0441 14.94749527522378
2015-049A               
1 40899U 15049A   25073.85117198  .00480130  94242-4  12971-2 0  9999
2 40899  97.4230 108.1985 0002441 112.9961 247.1572 15.94292722526777
2015-049G               
1 40905U 15049G   25073.86785968  .00028733  00000+0  70645-3 0  9998
2 40905  97.5100  93.9017 0011411  98.5865 261.6674 15.40534517525212
LILACSAT-2              
1 40908U 15049K   25073.86308021  .00021320  00000+0  60990-3 0  9999
2 40908  97.5140  92.2437 0012023 108.9857 251.2691 15.35914041524901
COSMOS 2507             
1 40920U 15050A   25073.52474655  .00000028  00000+0  12858-3 0  9997
2 40920  82.4983   5.8220 0008370 275.7384  84.2741 12.42906903429751
COSMOS 2508             
1 40921U 15050B   25073.87722305  .00000036  00000+0  18707-3 0  9992
2 40921  82.4936   4.2816 0013308 310.4423  49.5496 12.42891777429801
COSMOS 2509             
1 40922U 15050C   25073.57934438  .00000031  00000+0  15009-3 0  9999
2 40922  82.4942   4.5498 0014175 330.2420  29.7852 12.42913970429781
LQSAT                   
1 40958U 15057A   25073.88671394  .00001748  00000+0  26141-3 0  9993
2 40958  97.6594  85.8008 0016427 327.8772  32.1436 14.75826742507527
LINGQIAO VIDEO A        
1 40959U 15057B   25073.88419623  .00002588  00000+0  37899-3 0  9994
2 40959  97.6561  87.0720 0016140 326.9506  33.0695 14.76343743507617
LINGQIAO VIDEO B        
1 40960U 15057C   25073.88609346  .00002292  00000+0  33572-3 0  9995
2 40960  97.6554  88.2971 0016292 326.8711  33.1478 14.76430965507654
JILIN-1                 
1 40961U 15057D   25073.84099835  .00002068  00000+0  29888-3 0  9994
2 40961  97.6548  91.4388 0016134 322.2961  37.7119 14.77115942507779
FOX-1A (AO-85)          
1 40967U 15058D   25073.87907774  .00009426  00000+0  81120-3 0  9996
2 40967  64.7743 262.5218 0173796 222.6137 136.1382 14.86874620 45178
SINOD-D 1               
1 40968U 15058E   25073.57109479  .00013960  00000+0  11184-2 0  9990
2 40968  64.7742 252.8160 0164744 221.7528 137.0919 14.90271363 48026
ELEKTRO-L 2             
1 41105U 15074A   25073.29771535 -.00000120  00000+0  00000+0 0  9996
2 41105   5.5305  76.1741 0002995 228.4534 320.1679  1.00272512 33891
TELEOS-1                
1 41169U 15077D   25073.16624373  .00120931  00000+0  13717-2 0  9996
2 41169  14.9771 263.9977 0001536 214.3181 145.7047 15.60472733512611
DAMPE                   
1 41173U 15078A   25073.90692529  .00003401  00000+0  12337-3 0  9992
2 41173  97.4469  72.9481 0010572 263.9514  96.0521 15.28994446514323
ORBCOMM FM114           
1 41179U 15081A   25073.30556256  .00002346  00000+0  54265-3 0  9995
2 41179  47.0035  14.9301 0002775 282.6935  77.3640 14.57964169490627
ORBCOMM FM110           
1 41182U 15081D   25073.28132047  .00003057  00000+0  69578-3 0  9997
2 41182  47.0028  14.4131 0001762  46.6916 313.4116 14.57958199490494
ORBCOMM FM112           
1 41184U 15081F   25073.60777385  .00001891  00000+0  44496-3 0  9991
2 41184  46.9987 281.9459 0001146 286.9166  73.1594 14.57910751491868
ORBCOMM FM113           
1 41185U 15081G   25073.85885437  .00002039  00000+0  47708-3 0  9991
2 41185  47.0003 281.0726 0001060 303.8441  56.2343 14.57901003491952
ORBCOMM FM108           
1 41187U 15081J   25073.74342679  .00002724  00000+0  62496-3 0  9999
2 41187  47.0034 192.9160 0003667 237.3565 122.6967 14.57903063493098
